{
  "type": "FeatureCollection",
  "features": [
    {
      "type": "Feature",
      "properties": {
        "norad_id": 34010,
        "name": "COSMOS 2251 DEB",
        "group": "cosmos-2251-debris",
        "lat": 58.476800991733406,
        "lon": 64.91560238430411,
        "alt_km": 499.43954844331165,
        "timestamp": "2025-12-17T17:50:19.643963+00:00",
        "meta_object_name": "COSMOS 2251 DEB",
        "meta_object_id": "1993-036GV",
        "meta_epoch": "2025-12-17T04:40:58.104480",
        "meta_mean_motion": 15.19451391,
        "meta_eccentricity": 0.00045706,
        "meta_inclination": 73.999,
        "meta_ra_of_asc_node": 273.9611,
        "meta_arg_of_pericenter": 64.443,
        "meta_mean_anomaly": 295.7239,
        "meta_ephemeris_type": 0,
        "meta_classification_type": "U",
        "meta_norad_cat_id": 34010,
        "meta_element_set_no": 999,
        "meta_rev_at_epoch": 89353,
        "meta_bstar": 0.0033774124,
        "meta_mean_motion_dot": 0.00072328,
        "meta_mean_motion_ddot": 0,
        "tle_line1": "1 34010U 93036GV  25351.19511695  .00072328  00000+0  33774-2 0  9999",
        "tle_line2": "2 34010  73.9990 273.9611 0004570  64.4430 295.7239 15.19451391893537"
      },
      "geometry": {
        "type": "Point",
        "coordinates": [
          64.91560238430411,
          58.476800991733406
        ]
      }
    },
    {
      "type": "Feature",
      "properties": {
        "norad_id": 34011,
        "name": "COSMOS 2251 DEB",
        "group": "cosmos-2251-debris",
        "lat": -58.01201058618003,
        "lon": -66.45624791405,
        "alt_km": 765.7689753978912,
        "timestamp": "2025-12-17T17:50:19.643973+00:00",
        "meta_object_name": "COSMOS 2251 DEB",
        "meta_object_id": "1993-036GW",
        "meta_epoch": "2025-12-17T06:28:05.166336",
        "meta_mean_motion": 14.41791711,
        "meta_eccentricity": 0.00358567,
        "meta_inclination": 74.0142,
        "meta_ra_of_asc_node": 321.7433,
        "meta_arg_of_pericenter": 43.9225,
        "meta_mean_anomaly": 316.4771,
        "meta_ephemeris_type": 0,
        "meta_classification_type": "U",
        "meta_norad_cat_id": 34011,
        "meta_element_set_no": 999,
        "meta_rev_at_epoch": 87981,
        "meta_bstar": 0.00060869709,
        "meta_mean_motion_dot": 1.978e-05,
        "meta_mean_motion_ddot": 0,
        "tle_line1": "1 34011U 93036GW  25351.26950424  .00001978  00000+0  60870-3 0  9996",
        "tle_line2": "2 34011  74.0142 321.7433 0035856  43.9225 316.4771 14.41791711879812"
      },
      "geometry": {
        "type": "Point",
        "coordinates": [
          -66.45624791405,
          -58.01201058618003
        ]
      }
    },
    {
      "type": "Feature",
      "properties": {
        "norad_id": 34014,
        "name": "COSMOS 2251 DEB",
        "group": "cosmos-2251-debris",
        "lat": 71.58798591833062,
        "lon": -29.60992109959647,
        "alt_km": 621.2912322026459,
        "timestamp": "2025-12-17T17:50:19.643983+00:00",
        "meta_object_name": "COSMOS 2251 DEB",
        "meta_object_id": "1993-036GZ",
        "meta_epoch": "2025-12-17T04:57:57.126816",
        "meta_mean_motion": 14.73193929,
        "meta_eccentricity": 0.00372074,
        "meta_inclination": 74.0173,
        "meta_ra_of_asc_node": 272.0093,
        "meta_arg_of_pericenter": 50.4332,
        "meta_mean_anomaly": 66.6473,
        "meta_ephemeris_type": 0,
        "meta_classification_type": "U",
        "meta_norad_cat_id": 34014,
        "meta_element_set_no": 999,
        "meta_rev_at_epoch": 89369,
        "meta_bstar": 0.00072975843,
        "meta_mean_motion_dot": 4.73e-05,
        "meta_mean_motion_ddot": 0,
        "tle_line1": "1 34014U 93036GZ  25351.20691119  .00004730  00000+0  72976-3 0  9995",
        "tle_line2": "2 34014  74.0173 272.0093 0037207  50.4332  66.6473 14.73193929893690"
      },
      "geometry": {
        "type": "Point",
        "coordinates": [
          -29.60992109959647,
          71.58798591833062
        ]
      }
    },
    {
      "type": "Feature",
      "properties": {
        "norad_id": 34015,
        "name": "COSMOS 2251 DEB",
        "group": "cosmos-2251-debris",
        "lat": -33.403934921631425,
        "lon": 138.9741549562141,
        "alt_km": 695.0351309867337,
        "timestamp": "2025-12-17T17:50:19.643993+00:00",
        "meta_object_name": "COSMOS 2251 DEB",
        "meta_object_id": "1993-036HA",
        "meta_epoch": "2025-12-16T21:09:08.620992",
        "meta_mean_motion": 14.60307464,
        "meta_eccentricity": 0.00209985,
        "meta_inclination": 74.0227,
        "meta_ra_of_asc_node": 151.5115,
        "meta_arg_of_pericenter": 248.288,
        "meta_mean_anomaly": 227.2108,
        "meta_ephemeris_type": 0,
        "meta_classification_type": "U",
        "meta_norad_cat_id": 34015,
        "meta_element_set_no": 999,
        "meta_rev_at_epoch": 88591,
        "meta_bstar": 0.0012074423,
        "meta_mean_motion_dot": 5.826e-05,
        "meta_mean_motion_ddot": 0,
        "tle_line1": "1 34015U 93036HA  25350.88134978  .00005826  00000+0  12074-2 0  9993",
        "tle_line2": "2 34015  74.0227 151.5115 0020998 248.2880 227.2108 14.60307464885914"
      },
      "geometry": {
        "type": "Point",
        "coordinates": [
          138.9741549562141,
          -33.403934921631425
        ]
      }
    },
    {
      "type": "Feature",
      "properties": {
        "norad_id": 34018,
        "name": "COSMOS 2251 DEB",
        "group": "cosmos-2251-debris",
        "lat": 54.52158625557337,
        "lon": -120.3246956356545,
        "alt_km": 761.4743512981968,
        "timestamp": "2025-12-17T17:50:19.644003+00:00",
        "meta_object_name": "COSMOS 2251 DEB",
        "meta_object_id": "1993-036HD",
        "meta_epoch": "2025-12-17T06:58:52.863168",
        "meta_mean_motion": 13.81077349,
        "meta_eccentricity": 0.02634761,
        "meta_inclination": 73.878,
        "meta_ra_of_asc_node": 84.3834,
        "meta_arg_of_pericenter": 119.4018,
        "meta_mean_anomaly": 274.0072,
        "meta_ephemeris_type": 0,
        "meta_classification_type": "U",
        "meta_norad_cat_id": 34018,
        "meta_element_set_no": 999,
        "meta_rev_at_epoch": 84720,
        "meta_bstar": 0.00033527604,
        "meta_mean_motion_dot": 4.39e-06,
        "meta_mean_motion_ddot": 0,
        "tle_line1": "1 34018U 93036HD  25351.29088962  .00000439  00000+0  33528-3 0  9996",
        "tle_line2": "2 34018  73.8780  84.3834 0263476 119.4018 274.0072 13.81077349847209"
      },
      "geometry": {
        "type": "Point",
        "coordinates": [
          -120.3246956356545,
          54.52158625557337
        ]
      }
    },
    {
      "type": "Feature",
      "properties": {
        "norad_id": 34019,
        "name": "COSMOS 2251 DEB",
        "group": "cosmos-2251-debris",
        "lat": 58.22181289654507,
        "lon": -166.14177883087385,
        "alt_km": 783.3269050391809,
        "timestamp": "2025-12-17T17:50:19.644014+00:00",
        "meta_object_name": "COSMOS 2251 DEB",
        "meta_object_id": "1993-036HE",
        "meta_epoch": "2025-12-17T05:54:26.352576",
        "meta_mean_motion": 14.33958712,
        "meta_eccentricity": 0.00625686,
        "meta_inclination": 73.9548,
        "meta_ra_of_asc_node": 42.4528,
        "meta_arg_of_pericenter": 223.0473,
        "meta_mean_anomaly": 210.0349,
        "meta_ephemeris_type": 0,
        "meta_classification_type": "U",
        "meta_norad_cat_id": 34019,
        "meta_element_set_no": 999,
        "meta_rev_at_epoch": 87585,
        "meta_bstar": 0.00059552959,
        "meta_mean_motion_dot": 1.671e-05,
        "meta_mean_motion_ddot": 0,
        "tle_line1": "1 34019U 93036HE  25351.24613834  .00001671  00000+0  59553-3 0  9999",
        "tle_line2": "2 34019  73.9548  42.4528 0062568 223.0473 210.0349 14.33958712875853"
      },
      "geometry": {
        "type": "Point",
        "coordinates": [
          -166.14177883087385,
          58.22181289654507
        ]
      }
    },
    {
      "type": "Feature",
      "properties": {
        "norad_id": 34021,
        "name": "COSMOS 2251 DEB",
        "group": "cosmos-2251-debris",
        "lat": 32.98756768374589,
        "lon": -70.27444670600661,
        "alt_km": 730.4893504914135,
        "timestamp": "2025-12-17T17:50:19.644024+00:00",
        "meta_object_name": "COSMOS 2251 DEB",
        "meta_object_id": "1993-036HG",
        "meta_epoch": "2025-12-17T03:05:40.048800",
        "meta_mean_motion": 14.49964526,
        "meta_eccentricity": 0.00209746,
        "meta_inclination": 74.036,
        "meta_ra_of_asc_node": 121.5868,
        "meta_arg_of_pericenter": 265.2503,
        "meta_mean_anomaly": 274.8672,
        "meta_ephemeris_type": 0,
        "meta_classification_type": "U",
        "meta_norad_cat_id": 34021,
        "meta_element_set_no": 999,
        "meta_rev_at_epoch": 88693,
        "meta_bstar": 0.00038122117,
        "meta_mean_motion_dot": 1.452e-05,
        "meta_mean_motion_ddot": 0,
        "tle_line1": "1 34021U 93036HG  25351.12893575  .00001452  00000+0  38122-3 0  9997",
        "tle_line2": "2 34021  74.0360 121.5868 0020974 265.2503 274.8672 14.49964526886938"
      },
      "geometry": {
        "type": "Point",
        "coordinates": [
          -70.27444670600661,
          32.98756768374589
        ]
      }
    }
  ]
}